[{"OBJECT_NAME":"NUSAT-41 (C PAYNE-G)","OBJECT_ID":"2023-084N","EPOCH":"2026-03-09T21:55:54.837696","MEAN_MOTION":15.29680045,"ECCENTRICITY":0.00062175,"INCLINATION":97.5351,"RA_OF_ASC_NODE":204.1011,"ARG_OF_PERICENTER":322.2064,"MEAN_ANOMALY":37.8738,"EPHEMERIS_TYPE":0,"CLASSIFICATION_TYPE":"U","NORAD_CAT_ID":56944,"ELEMENT_SET_NO":999,"REV_AT_EPOCH":15260,"BSTAR":0.00059912824,"MEAN_MOTION_DOT":0.0001718,"MEAN_MOTION_DDOT":0},{"OBJECT_NAME":"STARLINK-35821","OBJECT_ID":"2025-254AA","EPOCH":"2026-03-09T17:22:21.026208","MEAN_MOTION":15.30210868,"ECCENTRICITY":0.00010619,"INCLINATION":53.1584,"RA_OF_ASC_NODE":229.9257,"ARG_OF_PERICENTER":51.4783,"MEAN_ANOMALY":308.6312,"EPHEMERIS_TYPE":0,"CLASSIFICATION_TYPE":"U","NORAD_CAT_ID":66372,"ELEMENT_SET_NO":999,"REV_AT_EPOCH":1901,"BSTAR":0.0011301277,"MEAN_MOTION_DOT":0.00033273,"MEAN_MOTION_DDOT":0}]
